[{"OBJECT_NAME":"STARLINK-5508","OBJECT_ID":"2023-021M","EPOCH":"2026-03-09T16:51:28.909152","MEAN_MOTION":14.98333687,"ECCENTRICITY":0.00033931,"INCLINATION":70.0003,"RA_OF_ASC_NODE":184.4106,"ARG_OF_PERICENTER":268.7257,"MEAN_ANOMALY":91.3513,"EPHEMERIS_TYPE":0,"CLASSIFICATION_TYPE":"U","NORAD_CAT_ID":55639,"ELEMENT_SET_NO":999,"REV_AT_EPOCH":16879,"BSTAR":0.00042167772,"MEAN_MOTION_DOT":4.942e-5,"MEAN_MOTION_DDOT":0},{"OBJECT_NAME":"IRIDIUM 33 DEB","OBJECT_ID":"1997-051CX","EPOCH":"2026-03-09T17:43:24.588192","MEAN_MOTION":14.98094004,"ECCENTRICITY":0.00015404,"INCLINATION":86.3865,"RA_OF_ASC_NODE":350.5598,"ARG_OF_PERICENTER":95.4765,"MEAN_ANOMALY":329.7207,"EPHEMERIS_TYPE":0,"CLASSIFICATION_TYPE":"U","NORAD_CAT_ID":34088,"ELEMENT_SET_NO":999,"REV_AT_EPOCH":90041,"BSTAR":0.0032183732,"MEAN_MOTION_DOT":0.00038264,"MEAN_MOTION_DDOT":0}]
